{"type":"Feature","properties":{"name":"Congestion Relief Zone","source":"pipeline/f_zone.py via g_web_zone.py"},"geometry":{"type":"Polygon","coordinates":[[[-73.9578,40.75916],[-73.95918,40.75786],[-73.96066,40.75592],[-73.96223,40.75452],[-73.96817,40.74767],[-73.96837,40.74743],[-73.96823,40.74737],[-73.96894,40.74652],[-73.96988,40.74544],[-73.96997,40.7455],[-73.97079,40.74441],[-73.97094,40.74447],[-73.97111,40.7442],[-73.9707,40.74399],[-73.97118,40.7441],[-73.97136,40.74384],[-73.97121,40.74377],[-73.97189,40.74272],[-73.97174,40.74266],[-73.97196,40.74234],[-73.97229,40.74072],[-73.97216,40.74068],[-73.97222,40.74031],[-73.97266,40.73922],[-73.97249,40.7358],[-73.97287,40.73577],[-73.97441,40.73641],[-73.97446,40.73629],[-73.97403,40.73613],[-73.97447,40.73628],[-73.9745,40.73606],[-73.97414,40.73596],[-73.9745,40.73604],[-73.97451,40.7358],[-73.97449,40.73588],[-73.97425,40.73578],[-73.97447,40.7358],[-73.97447,40.73567],[-73.97415,40.73567],[-73.97306,40.73518],[-73.97281,40.73552],[-73.97293,40.73561],[-73.97276,40.73551],[-73.97295,40.73507],[-73.9733,40.73524],[-73.9733,40.73504],[-73.97354,40.73494],[-73.97444,40.73532],[-73.97396,40.73342],[-73.97386,40.73322],[-73.97368,40.73321],[-73.97387,40.73307],[-73.97341,40.73128],[-73.97196,40.73],[-73.97148,40.72925],[-73.97143,40.72849],[-73.97169,40.72741],[-73.97149,40.72735],[-73.97357,40.7186],[-73.97513,40.71462],[-73.97612,40.71246],[-73.97682,40.71142],[-73.978,40.71056],[-73.98129,40.71022],[-73.98125,40.70983],[-73.98839,40.70913],[-73.98864,40.70991],[-73.9888,40.70997],[-73.99414,40.70923],[-73.99808,40.70851],[-74.00119,40.70686],[-74.00098,40.70642],[-74.00141,40.70618],[-74.00059,40.70541],[-74.00145,40.70487],[-74.00206,40.70542],[-74.00257,40.70552],[-74.00269,40.70545],[-74.00197,40.70474],[-74.00217,40.70461],[-74.00243,40.70468],[-74.00239,40.7048],[-74.00332,40.70563],[-74.00383,40.7053],[-74.00263,40.70422],[-74.00287,40.70408],[-74.00406,40.70515],[-74.00602,40.70387],[-74.00614,40.70398],[-74.0066,40.70369],[-74.0053,40.70256],[-74.00549,40.70243],[-74.00554,40.70265],[-74.00568,40.70258],[-74.00679,40.70357],[-74.00752,40.70312],[-74.0077,40.70285],[-74.00929,40.70193],[-74.0087,40.70114],[-74.00776,40.70155],[-74.00759,40.70133],[-74.00854,40.70092],[-74.00835,40.70067],[-74.00862,40.70055],[-74.00958,40.70184],[-74.01118,40.70145],[-74.01111,40.70128],[-74.01129,40.70125],[-74.01082,40.7002],[-74.01115,40.7009],[-74.01136,40.70085],[-74.01133,40.70057],[-74.0115,40.70082],[-74.01173,40.70077],[-74.01163,40.70046],[-74.01185,40.70074],[-74.01209,40.70068],[-74.01186,40.70011],[-74.01196,40.70004],[-74.01239,40.70062],[-74.01259,40.70057],[-74.01261,40.70011],[-74.01291,40.70052],[-74.01311,40.70051],[-74.01301,40.69982],[-74.01311,40.69977],[-74.01327,40.7005],[-74.01349,40.70048],[-74.01353,40.70011],[-74.01367,40.70013],[-74.01353,40.70031],[-74.01356,40.70094],[-74.01395,40.70099],[-74.01422,40.70011],[-74.01415,40.70058],[-74.01429,40.70064],[-74.01467,40.70021],[-74.01432,40.70066],[-74.01464,40.70082],[-74.0151,40.70033],[-74.01467,40.70083],[-74.01502,40.70099],[-74.01514,40.70084],[-74.01579,40.70135],[-74.01715,40.70271],[-74.01767,40.70359],[-74.01788,40.70354],[-74.01767,40.70361],[-74.01757,40.70418],[-74.01779,40.70423],[-74.01775,40.70405],[-74.01782,40.70394],[-74.01795,40.70398],[-74.01784,40.70424],[-74.01845,40.70416],[-74.01866,40.70443],[-74.01748,40.70467],[-74.01811,40.70455],[-74.01889,40.70473],[-74.01934,40.70609],[-74.01912,40.70698],[-74.01863,40.70714],[-74.01885,40.70697],[-74.01854,40.70692],[-74.01819,40.70782],[-74.01886,40.70805],[-74.01777,40.71283],[-74.0178,40.71235],[-74.01662,40.71216],[-74.01662,40.71276],[-74.01632,40.71341],[-74.01758,40.7136],[-74.01772,40.71307],[-74.01671,40.71862],[-74.01321,40.71832],[-74.01307,40.71892],[-74.01291,40.71973],[-74.01346,40.7198],[-74.01341,40.72002],[-74.01638,40.72038],[-74.01631,40.72073],[-74.013,40.72033],[-74.0129,40.72087],[-74.01569,40.72121],[-74.01562,40.72154],[-74.01316,40.72125],[-74.01312,40.72147],[-74.01364,40.72152],[-74.01362,40.72159],[-74.01254,40.7215],[-74.01165,40.72587],[-74.01516,40.72632],[-74.01512,40.72679],[-74.01154,40.72645],[-74.01138,40.72823],[-74.01439,40.72846],[-74.01409,40.73066],[-74.01116,40.73045],[-74.01099,40.73232],[-74.01094,40.73301],[-74.014,40.73307],[-74.014,40.73333],[-74.0109,40.7333],[-74.01073,40.73346],[-74.01087,40.7336],[-74.01083,40.73401],[-74.01202,40.73406],[-74.012,40.73434],[-74.01081,40.73428],[-74.01048,40.73806],[-74.01109,40.73809],[-74.01114,40.73839],[-74.01045,40.73836],[-74.01039,40.73917],[-74.01158,40.73926],[-74.01146,40.74058],[-74.01216,40.74061],[-74.01266,40.74075],[-74.00963,40.74065],[-74.00941,40.74115],[-74.00962,40.74136],[-74.01021,40.74161],[-74.01038,40.7414],[-74.0114,40.74182],[-74.01084,40.7426],[-74.01029,40.74236],[-74.01013,40.74258],[-74.00919,40.74229],[-74.00909,40.74289],[-74.00962,40.74295],[-74.00958,40.74326],[-74.01212,40.74352],[-74.01209,40.7439],[-74.00951,40.74368],[-74.00944,40.74397],[-74.0089,40.74392],[-74.00873,40.74486],[-74.00961,40.745],[-74.00956,40.74529],[-74.00992,40.74533],[-74.01,40.74496],[-74.00987,40.74492],[-74.01017,40.74494],[-74.01004,40.74496],[-74.00997,40.74532],[-74.01047,40.74539],[-74.01055,40.74501],[-74.01042,40.74498],[-74.01076,40.74501],[-74.01059,40.74502],[-74.01053,40.74538],[-74.0111,40.74545],[-74.01117,40.74508],[-74.01104,40.74505],[-74.01139,40.74507],[-74.01123,40.74508],[-74.01115,40.74545],[-74.01174,40.74552],[-74.0118,40.74515],[-74.01167,40.74511],[-74.01184,40.74513],[-74.01168,40.74598],[-74.00946,40.74575],[-74.00936,40.74634],[-74.01153,40.74657],[-74.01151,40.74698],[-74.00924,40.74676],[-74.00914,40.74736],[-74.01141,40.74763],[-74.0113,40.74801],[-74.00906,40.74779],[-74.00895,40.74841],[-74.01122,40.74868],[-74.01111,40.74905],[-74.00995,40.74893],[-74.00956,40.74997],[-74.00925,40.74999],[-74.0091,40.75037],[-74.01068,40.75102],[-74.01056,40.75132],[-74.009,40.75065],[-74.00853,40.75188],[-74.00914,40.7521],[-74.00865,40.75194],[-74.00911,40.75214],[-74.00906,40.75221],[-74.00858,40.75204],[-74.00934,40.75236],[-74.00848,40.75202],[-74.00843,40.75216],[-74.00999,40.75282],[-74.00997,40.75293],[-74.00879,40.75235],[-74.00869,40.75249],[-74.00835,40.75235],[-74.00762,40.75428],[-74.00774,40.75434],[-74.0076,40.75453],[-74.00747,40.75448],[-74.00728,40.75474],[-74.00741,40.75479],[-74.00727,40.75499],[-74.00714,40.75493],[-74.00542,40.75732],[-74.00521,40.75723],[-74.0048,40.75781],[-74.00528,40.75803],[-74.00503,40.75836],[-74.00699,40.75918],[-74.00653,40.75987],[-74.0045,40.75908],[-74.00421,40.7595],[-74.00391,40.75938],[-74.00381,40.75951],[-74.00425,40.7597],[-74.00415,40.75984],[-74.00432,40.75991],[-74.00367,40.75971],[-74.00357,40.75985],[-74.00393,40.76],[-74.00313,40.76108],[-74.00279,40.76093],[-74.00234,40.76154],[-74.00455,40.76249],[-74.00445,40.76266],[-74.0022,40.76173],[-74.00153,40.76264],[-74.00376,40.76358],[-74.00361,40.76378],[-74.00139,40.76285],[-74.00097,40.76342],[-74.00315,40.76433],[-74.00295,40.76462],[-74.00322,40.76464],[-74.00316,40.76473],[-73.99993,40.76341],[-73.99962,40.76356],[-73.99915,40.76421],[-74.00227,40.76553],[-74.00206,40.76588],[-73.99888,40.76457],[-73.99858,40.765],[-73.99869,40.76521],[-73.99828,40.76557],[-74.00154,40.76694],[-74.00139,40.76723],[-73.99807,40.76587],[-73.99738,40.76682],[-74.00063,40.7682],[-74.00045,40.7685],[-73.99716,40.76713],[-73.99646,40.7681],[-73.99974,40.76951],[-73.99947,40.76976],[-73.99707,40.76873],[-73.99715,40.76885],[-73.99657,40.76942],[-73.99903,40.77046],[-73.99876,40.77083],[-73.99631,40.7698],[-73.99588,40.7704],[-73.99602,40.77045],[-73.9959,40.77061],[-73.99577,40.77055],[-73.99542,40.77103],[-73.996,40.77131],[-73.9959,40.77145],[-73.99531,40.7712],[-73.99493,40.77152],[-73.99498,40.77166],[-73.99707,40.77254],[-73.99687,40.77282],[-73.99477,40.77193],[-73.99445,40.77238],[-73.99623,40.77313],[-73.99612,40.77328],[-73.99416,40.77249],[-73.99383,40.77293],[-73.99414,40.7729],[-73.99438,40.77304],[-73.99429,40.77316],[-73.99502,40.77348],[-73.99505,40.7733],[-73.99624,40.77379],[-73.99606,40.77389],[-73.9961,40.77409],[-73.99394,40.77318],[-73.99328,40.77404],[-73.9578,40.75916]],[[-74.01009,40.74249],[-74.0102,40.74233],[-74.00982,40.74217],[-74.01017,40.74167],[-74.00936,40.74142],[-74.00924,40.74207],[-74.01009,40.74249]]]}}