{"type": "Feature", "properties": {"name": "Congestion Relief Zone"}, "geometry": {"type": "Polygon", "coordinates": [[[-73.95780262646785, 40.75915643345148], [-73.95918103286087, 40.75785611105263], [-73.96065638180474, 40.75592314955037], [-73.96223125165591, 40.75452213042204], [-73.96817376101073, 40.747666753741925], [-73.96836519324148, 40.74743349462028], [-73.96823171715788, 40.74736847648939], [-73.96894301109302, 40.746518335696685], [-73.9698756140306, 40.7454447891378], [-73.96997377026275, 40.74549574743079], [-73.9707883477664, 40.7444062176905], [-73.97094062960419, 40.74447144402558], [-73.97111438123977, 40.74420436093265], [-73.97070317531687, 40.74399049490893], [-73.97118193576082, 40.74410323270803], [-73.97135752941868, 40.743838455359636], [-73.97120546301967, 40.74377151030149], [-73.97188888913065, 40.74272481985312], [-73.97174059715825, 40.74266358001168], [-73.97195955856255, 40.742337921543836], [-73.97228992099217, 40.740721039031946], [-73.97216477368657, 40.74067572212931], [-73.97221685422328, 40.740307625061696], [-73.97265743803038, 40.73922275427715], [-73.97248994174741, 40.735803280107795], [-73.97286939178467, 40.73577086128574], [-73.97441385816532, 40.73641439385913], [-73.97445975070463, 40.7362940197185], [-73.97402692104305, 40.73612576724569], [-73.97446647047286, 40.73627845683008], [-73.97450376013228, 40.736064588444215], [-73.97414062018392, 40.73595565666492], [-73.97450488285943, 40.73604228103946], [-73.97450793938161, 40.735796945772556], [-73.97448854079063, 40.735875680246544], [-73.97424630658303, 40.73578011045604], [-73.9744704050787, 40.735797872255304], [-73.97446537767371, 40.735666886063875], [-73.97414616523469, 40.73567162151051], [-73.97305698712047, 40.73517745341573], [-73.97280661710461, 40.735523918521324], [-73.97293031926458, 40.73560761439685], [-73.97276308380353, 40.73550508747374], [-73.97294520758682, 40.735065170071294], [-73.9732989504614, 40.73524235507728], [-73.97329627362966, 40.7350408566427], [-73.97354472883961, 40.73494432610164], [-73.97444065082591, 40.73531677190073], [-73.97395905029711, 40.73342116553862], [-73.97385730036494, 40.73321630363872], [-73.9736762757606, 40.733205933888215], [-73.97386810776207, 40.73306568719578], [-73.97341321730858, 40.73128241642885], [-73.97196340301248, 40.730000377217664], [-73.97147994907228, 40.729249577196], [-73.9714271844355, 40.72848582588513], [-73.97168514866583, 40.72740588663671], [-73.97149039092855, 40.7273500976075], [-73.97357185653419, 40.71859722942143], [-73.97512899530274, 40.71462115619685], [-73.9761236883879, 40.71246032539851], [-73.97681883540048, 40.71141956752392], [-73.97799674790384, 40.71056101739179], [-73.98128647552558, 40.71021834788182], [-73.98124579569945, 40.70982621460142], [-73.98839064023267, 40.70912694916282], [-73.9886365807185, 40.70991206151646], [-73.98879717785803, 40.70996660747239], [-73.99414063200345, 40.70923326740011], [-73.99808351186999, 40.70850961536731], [-74.0011868526283, 40.706859825771936], [-74.00098276691733, 40.70641671299312], [-74.00140666691954, 40.70617938802082], [-74.0005924020935, 40.70541007891111], [-74.00145437418847, 40.70487330343224], [-74.00206142563808, 40.70541700513835], [-74.00256965059467, 40.70552357952368], [-74.00268512768794, 40.705449248118846], [-74.00197070397947, 40.704737867984804], [-74.002171849419, 40.70460659646387], [-74.00243071075865, 40.70467785800453], [-74.00238670740679, 40.70479566367467], [-74.00332307270787, 40.705628595220254], [-74.00383327532258, 40.70530324302658], [-74.00262896407828, 40.70422295278161], [-74.002866897815, 40.704075225511744], [-74.00405666439265, 40.70514736343912], [-74.00602048621096, 40.70387490010204], [-74.00614106753552, 40.70398097343561], [-74.0065959191387, 40.70368590194944], [-74.00530412596079, 40.702559865633226], [-74.00549427805099, 40.70243138145317], [-74.00553546138177, 40.70264552110702], [-74.00567522249854, 40.702584072197745], [-74.00678502191047, 40.70356812740289], [-74.00751905283795, 40.703121819734726], [-74.00769798694176, 40.70284927854697], [-74.00929072600606, 40.70193007131956], [-74.00869964313567, 40.70113986754241], [-74.00775549150644, 40.70154800217457], [-74.0075913620422, 40.7013280810483], [-74.00853611510774, 40.700919695745235], [-74.008349275591, 40.700669348388395], [-74.00862036163869, 40.700552163713446], [-74.00958483017605, 40.70183738556342], [-74.01118088303541, 40.70145139225388], [-74.01110775373041, 40.70127576447384], [-74.01128983905525, 40.70124998224445], [-74.01081530667369, 40.700200444101355], [-74.01115033556839, 40.700898400101124], [-74.01135836291354, 40.700851958636505], [-74.0113340941042, 40.70056835368245], [-74.01150291143712, 40.70081505897438], [-74.01172926817476, 40.70077011805986], [-74.01163147918649, 40.70045821824831], [-74.01185378549589, 40.70073892145034], [-74.01208668214693, 40.700681308739355], [-74.01185672556994, 40.700107103408584], [-74.01196196116918, 40.70003754559562], [-74.01239160032284, 40.70062052809419], [-74.01259392327508, 40.70057083347261], [-74.01261382087365, 40.70010826581126], [-74.01290881793956, 40.70052361169369], [-74.01310747847371, 40.70050745218082], [-74.0130118926586, 40.69981825663142], [-74.01311303826304, 40.69977416538285], [-74.01327349483086, 40.700496870227944], [-74.01348560832739, 40.7004782229086], [-74.01353285018102, 40.70010816142342], [-74.01367479314794, 40.70012582145101], [-74.01353047796475, 40.700311100346646], [-74.01355826959487, 40.700939870830716], [-74.01395152756511, 40.70099098246014], [-74.01422063195494, 40.700111491365895], [-74.0141523878731, 40.70057786628629], [-74.01428920741134, 40.70064414476523], [-74.01467119992007, 40.70021040119729], [-74.01432384363027, 40.700661304629875], [-74.01464323234912, 40.700817304325284], [-74.01506818269304, 40.70031825755512], [-74.01509832270126, 40.700334265523615], [-74.01467365628488, 40.70083460902858], [-74.0150211366168, 40.70099250401358], [-74.01514231812101, 40.70084289235444], [-74.01579351711152, 40.701346905807675], [-74.01714508062659, 40.70270534997635], [-74.01766881307273, 40.70359131346783], [-74.01787839340639, 40.70353850803738], [-74.01767132020267, 40.703606427383974], [-74.01757035640019, 40.70418388098674], [-74.01779454520292, 40.70423489759895], [-74.01775054986868, 40.704054882893665], [-74.01781758697946, 40.70393792249673], [-74.01795473982637, 40.70397578611135], [-74.01784441106724, 40.70424203993809], [-74.01844704670988, 40.70416235496205], [-74.01865886498044, 40.70442877929025], [-74.01748090483301, 40.70466726085802], [-74.01811302905885, 40.704553602333924], [-74.01888747947997, 40.704729142804425], [-74.01934254624474, 40.706093672527274], [-74.01912275963412, 40.7069758143376], [-74.01863058372714, 40.707139715772044], [-74.01884889814508, 40.70697031235039], [-74.0185351326967, 40.70691832201425], [-74.01819029259647, 40.7078216261101], [-74.01885500911968, 40.70804753444759], [-74.01777014254505, 40.71283457478931], [-74.01780037888393, 40.71234512415872], [-74.01662424425291, 40.712157318995494], [-74.01661840078305, 40.71275615002984], [-74.01632006627581, 40.713407982478444], [-74.01757952508993, 40.71359549038381], [-74.01772496219296, 40.71307018162288], [-74.01671018605823, 40.718624176058164], [-74.01321322719193, 40.71831571989594], [-74.01306805492318, 40.71892219382567], [-74.01290892764018, 40.71973485170661], [-74.01345505633182, 40.719801707426384], [-74.01341376512872, 40.72001948201438], [-74.01637848291482, 40.72037660883105], [-74.01630573342837, 40.7207270200383], [-74.01299980679079, 40.720333090750216], [-74.0128973027087, 40.72086804597598], [-74.01569471973286, 40.72120642487545], [-74.01562245781948, 40.7215434536739], [-74.01316066673286, 40.721253963194776], [-74.01311663311996, 40.72147373453092], [-74.01363523640495, 40.721516561134564], [-74.01361558335005, 40.72158618255959], [-74.01253875807262, 40.72150317657655], [-74.01165326569942, 40.725871761851536], [-74.01516324118423, 40.726319711936995], [-74.01512356549473, 40.7267939430673], [-74.01154201897596, 40.72644734642468], [-74.01138323604756, 40.728229272367344], [-74.01439069932388, 40.728463047520314], [-74.01408693559918, 40.73066317304047], [-74.01116195696476, 40.730450676349214], [-74.01099350879153, 40.73232041794078], [-74.01094118226749, 40.73300776326952], [-74.01400220214607, 40.73306800179563], [-74.01399957240966, 40.73333227751791], [-74.01090389883285, 40.73329761713975], [-74.01072972404017, 40.733463402434396], [-74.01086654686934, 40.733602738017005], [-74.01083284563212, 40.73400709401116], [-74.01201792010474, 40.7340637444565], [-74.01200124222393, 40.73433840116636], [-74.01081359479109, 40.73428344364777], [-74.0104765981442, 40.73806394059523], [-74.0110870663595, 40.73809275008146], [-74.01113915602562, 40.73838986281323], [-74.01045432864602, 40.738364505725755], [-74.01039303134563, 40.739174296561934], [-74.01158045502316, 40.73926453611219], [-74.0114607395534, 40.74058421475269], [-74.01215741913089, 40.740605998131436], [-74.0126592820849, 40.7407476384976], [-74.00963145571754, 40.74064536737443], [-74.00941140266131, 40.74115409331305], [-74.00961923440443, 40.741363610514966], [-74.01020818993538, 40.74160753792842], [-74.010383580722, 40.74139785352676], [-74.01139609242074, 40.741822813235274], [-74.01083987411933, 40.742596734022634], [-74.01029100591903, 40.742358524639805], [-74.01012563710833, 40.742575831777195], [-74.00919185382803, 40.742292631516854], [-74.00909156846193, 40.742886149072554], [-74.00962015348912, 40.74295124838993], [-74.00958464345703, 40.74326352048325], [-74.0121194002866, 40.74351661218273], [-74.0120900828903, 40.743897637649034], [-74.00951201767367, 40.74367609376045], [-74.00943800870864, 40.743971255473234], [-74.00890032962842, 40.7439179270962], [-74.00872780058874, 40.7448582329102], [-74.00961227924414, 40.74499790315071], [-74.00955832929749, 40.74528882529887], [-74.00991660813456, 40.74532725500723], [-74.00999822601715, 40.74495505930228], [-74.0098721108548, 40.74491650212594], [-74.01016790535392, 40.744942329709765], [-74.01003848384612, 40.74496345807833], [-74.0099739502192, 40.745323135109416], [-74.01046920011868, 40.74538676602916], [-74.0105504475589, 40.74501305720761], [-74.01041937209388, 40.74497682417123], [-74.01076419780692, 40.745005032020956], [-74.01058579200931, 40.74502044656174], [-74.01053106537704, 40.745382050389644], [-74.01110359804885, 40.745447670244126], [-74.01117183119825, 40.74507825828352], [-74.01104459150831, 40.74504621240219], [-74.01138769974182, 40.74507311268278], [-74.0112303805723, 40.74507583066286], [-74.0111541917691, 40.74544637808411], [-74.01173958552815, 40.745519918190354], [-74.01179527645735, 40.74515466698517], [-74.01167067583798, 40.74511397733999], [-74.01183642872417, 40.74512596367891], [-74.01167885505596, 40.74597946181612], [-74.00946389855972, 40.74575014365962], [-74.0093636273423, 40.74633560197741], [-74.01153382764763, 40.74656775471247], [-74.01151183018257, 40.74698460360064], [-74.00924314658675, 40.7467627907539], [-74.00913736259926, 40.74735976280317], [-74.0114067393552, 40.74763055006822], [-74.0113035299375, 40.748014571909074], [-74.00905847901343, 40.74778564533301], [-74.00894606502322, 40.74841189316889], [-74.01121561813416, 40.74867799224373], [-74.01110891182985, 40.749049875919766], [-74.0099481793803, 40.74893198800587], [-74.00956174747358, 40.7499699751995], [-74.00925340917918, 40.749985205722105], [-74.00910453215725, 40.750371069730505], [-74.01067737532614, 40.751022674477085], [-74.01056463476439, 40.75132146210147], [-74.00900098259454, 40.75064818378276], [-74.00853256925024, 40.7518836093045], [-74.00914082120002, 40.75209759409922], [-74.0086511593681, 40.75193951261581], [-74.00910757975159, 40.75213971211202], [-74.00905774009662, 40.75221435124337], [-74.00892887650475, 40.75214400187035], [-74.00858095760466, 40.75204388241179], [-74.0093408924528, 40.752355609545724], [-74.008478955728, 40.75201857192007], [-74.00842636447226, 40.75215785023945], [-74.0099905581975, 40.75281618714928], [-74.00997058797022, 40.75293356415334], [-74.00879210090847, 40.7523521383797], [-74.00868792219572, 40.752493998628566], [-74.00835352838843, 40.75235073934249], [-74.00761949611852, 40.75428184177427], [-74.00774404830214, 40.754336801931885], [-74.00759618989146, 40.75453055073434], [-74.00747157990921, 40.754477019921445], [-74.00728499944323, 40.75473556820334], [-74.00741362036906, 40.754789302669614], [-74.00727181174769, 40.7549855945354], [-74.00714468360972, 40.754932481173604], [-74.00541885841005, 40.75732314034936], [-74.00521187705773, 40.75723199854007], [-74.00480392560185, 40.75780984316488], [-74.00527894797891, 40.75802855492844], [-74.0050310513664, 40.758357016473305], [-74.00699375268466, 40.75917614764281], [-74.00652959987842, 40.759874751241384], [-74.00450483093914, 40.75908499655288], [-74.00420629125391, 40.759501707688564], [-74.00390742032769, 40.75937569218368], [-74.00380657835007, 40.759510731466186], [-74.00424697128062, 40.759699214171576], [-74.00414863814689, 40.759835914170964], [-74.00431889425076, 40.75991068576361], [-74.00366891453541, 40.75970596957674], [-74.00357251040076, 40.75984655897331], [-74.00392854933564, 40.76000301972061], [-74.00313338991401, 40.76107834509648], [-74.00278691552613, 40.76092896970349], [-74.00233528130057, 40.7615437270018], [-74.00454520983433, 40.76249280194501], [-74.00444951527277, 40.76266456720016], [-74.0022008207327, 40.76172843222664], [-74.00153309066981, 40.76264459812778], [-74.00375735037694, 40.76358224164074], [-74.00361214794175, 40.7637770439099], [-74.001386036986, 40.762850095002065], [-74.00097308022016, 40.76342027172584], [-74.00314976988994, 40.76433288868739], [-74.00294809515722, 40.764616835931506], [-74.00322275585363, 40.764638037670395], [-74.00315587058185, 40.76473050988013], [-73.99992712367728, 40.763406528479514], [-73.99962263458187, 40.76355908121064], [-73.99915098087908, 40.76420525958287], [-74.00227436642373, 40.76552518109975], [-74.00205713831564, 40.76587739041879], [-73.99888473174988, 40.76456937704867], [-73.99857638530538, 40.76499860727096], [-73.99868870694561, 40.76520857045002], [-73.9982816070953, 40.76556777493493], [-74.00154217871203, 40.76694470253285], [-74.00139437159497, 40.76723004773319], [-73.99806675905354, 40.76587188113588], [-73.99737808447966, 40.76682338587715], [-74.00062837395305, 40.76820311105888], [-74.00045489336716, 40.768504195680194], [-73.99715588949212, 40.76712869617297], [-73.9964571540504, 40.76809881579582], [-73.99973590247853, 40.7695061773317], [-73.99947253734024, 40.76976421547192], [-73.99707176039311, 40.76873264357703], [-73.99715035477146, 40.76884738771358], [-73.99657126439577, 40.769424568274005], [-73.99902682832902, 40.77046327298224], [-73.99876206914315, 40.77082505670939], [-73.99631327022085, 40.76979883633659], [-73.99588004351685, 40.770400579515005], [-73.99601693196199, 40.77045484888637], [-73.99590077425034, 40.77061312350113], [-73.99576733283618, 40.77055459595407], [-73.99542474436302, 40.771031615168134], [-73.99600175749052, 40.77130746533072], [-73.99589990100937, 40.77145029858229], [-73.99530566365357, 40.77119600490969], [-73.99492582120637, 40.77151604240567], [-73.9949768849473, 40.771658774923495], [-73.99707328169315, 40.77254286890211], [-73.9968729144914, 40.77281748122877], [-73.99477407930823, 40.77192954753038], [-73.99444501293384, 40.77237712658849], [-73.99622972001936, 40.773128975045495], [-73.99612087994667, 40.773275391093186], [-73.99416328456306, 40.772487191021455], [-73.99383108203092, 40.77293178785083], [-73.99413665258861, 40.77290187017444], [-73.99437655275096, 40.773039551101554], [-73.99429402982382, 40.77315624399199], [-73.99502327586075, 40.77348119657636], [-73.99505028469918, 40.773297153190036], [-73.9962406518988, 40.77378979139785], [-73.99606316808179, 40.77388688661024], [-73.99609524522621, 40.774086186437806], [-73.9939369418221, 40.77317951096707], [-73.99327672145331, 40.77404381818585], [-73.95780262646785, 40.75915643345148]], [[-74.0100880336451, 40.74248815567386], [-74.01019827672162, 40.74233375374003], [-74.0098223415751, 40.74216605205829], [-74.01016559689417, 40.74167234807372], [-74.00936174828294, 40.74142362374203], [-74.0092377993956, 40.74207162715807], [-74.0100880336451, 40.74248815567386]]]}}